TOMORROW-S3             
1 62392U 24247R   26068.49782200  .00007664  00000+0  28858-3 0  9991
2 62392  44.9999 117.9871 0000396 320.9462  39.1392 15.27672122 67708
STARLINK-33999          
1 63857U 25093X   26068.36264135  .00026292  00000+0  96056-3 0  9999
2 63857  43.0059  79.5866 0003344 295.8135  64.2372 15.27611111 47922
